[{"OBJECT_NAME":"ASTROCAST-0403","OBJECT_ID":"2023-001DG","EPOCH":"2026-03-09T19:45:35.762976","MEAN_MOTION":15.28004949,"ECCENTRICITY":0.00047706,"INCLINATION":97.5604,"RA_OF_ASC_NODE":161.3228,"ARG_OF_PERICENTER":338.0704,"MEAN_ANOMALY":22.033,"EPHEMERIS_TYPE":0,"CLASSIFICATION_TYPE":"U","NORAD_CAT_ID":55111,"ELEMENT_SET_NO":999,"REV_AT_EPOCH":12937,"BSTAR":0.0005131719,"MEAN_MOTION_DOT":0.00013959,"MEAN_MOTION_DDOT":0},{"OBJECT_NAME":"STARLINK-31948","OBJECT_ID":"2024-106V","EPOCH":"2026-03-09T01:33:20.364192","MEAN_MOTION":15.27573686,"ECCENTRICITY":0.00017313,"INCLINATION":42.9926,"RA_OF_ASC_NODE":332.811,"ARG_OF_PERICENTER":11.3368,"MEAN_ANOMALY":348.7522,"EPHEMERIS_TYPE":0,"CLASSIFICATION_TYPE":"U","NORAD_CAT_ID":59941,"ELEMENT_SET_NO":999,"REV_AT_EPOCH":10046,"BSTAR":4.4005268e-5,"MEAN_MOTION_DOT":9.49e-6,"MEAN_MOTION_DDOT":0}]
